CALSPHERE 1             
1 00900U 64063C   24359.91649102  .00001200  00000+0  12306-2 0  9999
2 00900  90.2105  59.5131 0027676 124.2187  49.7968 13.75690576997248
CALSPHERE 2             
1 00902U 64063E   24359.95342883  .00000095  00000+0  13038-3 0  9996
2 00902  90.2263  63.2548 0018263 359.1640 174.5394 13.52839136783351
LCS 1                   
1 01361U 65034C   24359.74772079  .00000011  00000+0  35207-3 0  9996
2 01361  32.1461  17.8419 0009913   8.2358 351.8301  9.89307217156467
TEMPSAT 1               
1 01512U 65065E   24359.58436965  .00000069  00000+0  12191-3 0  9991
2 01512  89.9646 213.3836 0068683 325.2189  51.9323 13.33547820888137
CALSPHERE 4A            
1 01520U 65065H   24359.78260826  .00000221  00000+0  40744-3 0  9998
2 01520  89.9346 126.9382 0069618 184.4971 274.0839 13.36147937890671
OPS 5712 (P/L 160)      
1 02826U 67053A   24359.91071270  .00017451  00000+0  31943-2 0  9998
2 02826  69.9218 268.8518 0001830 238.7528 121.3434 14.65870588986845
OPS 5712 (P/L 153)      
1 02874U 67053H   24359.88309581  .00000165  00000+0  15753-3 0  9992
2 02874  69.9721 191.1461 0007832 198.6174 161.4647 13.96690048931475
SURCAL 150B             
1 02909U 67053J   24359.89293011  .00051723  00000+0  42882-2 0  9990
2 02909  69.9316 195.2883 0001712 204.5605 155.5473 14.98533640999410
RIGIDSPHERE 2 (LCS 4)   
1 05398U 71067E   24359.87343878  .00002708  00000+0  89610-3 0  9990
2 05398  87.6227 128.5399 0059730 219.6778 140.0044 14.36652621796416
COSMOS 2493 (SKRL-756 1)
1 39490U 13078A   24360.14811950  .00007517  00000+0  64619-3 0  9996
2 39490  82.4153  66.7215 0013375 259.7109 100.2605 14.97227900597487
COSMOS 2494 (SKRL-756 2)
1 39491U 13078B   24360.15330478  .00007383  00000+0  59993-3 0  9999
2 39491  82.4146  58.1318 0017594 225.9070 134.0706 14.99347473597957
